2026-027B               
1 67747U 26027B   26056.57019917  .00008469  00000+0  42478-3 0  9990
2 67747  97.4876 185.7156 0009598 241.2288 118.7982 15.17540483  2023
2026-027C               
1 67748U 26027C   26056.56914870  .00006101  00000+0  30629-3 0  9998
2 67748  97.4888 185.7193 0009947 244.1727 115.8481 15.17625840  2029
2026-027D               
1 67749U 26027D   26056.63351689  .00009907  00000+0  49171-3 0  9999
2 67749  97.4883 185.7857 0009747 248.7837 111.2356 15.17858743  1987
2026-027E               
1 67750U 26027E   26056.56754630  .00008530  00000+0  42419-3 0  9995
2 67750  97.4894 185.7226 0008889 250.3273 109.7001 15.17845625  2020
2026-027F               
1 67751U 26027F   26056.63260771  .00013788  00000+0  67948-3 0  9997
2 67751  97.4893 185.7893 0010088 249.8889 110.1260 15.18021632  2039
2026-027G               
1 67752U 26027G   26056.63270046  .00009032  00000+0  44762-3 0  9990
2 67752  97.4888 185.7877 0009223 252.4534 107.5692 15.17941927  2038
2026-027H               
1 67753U 26027H   26056.58994899  .00344011  23616-5  59010-3 0  9999
2 67753  97.5123 186.7051 0248817 289.7090  67.7483 15.65089406  2089
2026-027J               
1 67754U 26027J   26056.60554952  .00924705  24121-5  12139-2 0  9991
2 67754  97.5081 186.8366 0207094 288.4308  69.4544 15.77256314  2032
2026-028A               
1 67756U 26028A   26056.28892402 -.00000171  00000+0  00000+0 0  9991
2 67756   0.4997 288.8926 0042029 229.9232 201.3318  0.99526192   136
KUIPER-00159            
1 67764U 26030A   26056.59133287  .00025071  00000+0  73224-3 0  9993
2 67764  51.8856 277.4834 0004303  19.9292 340.1861 15.35151074  3235
KUIPER-00160            
1 67765U 26030B   26056.59201770  .00021818  00000+0  64039-3 0  9996
2 67765  51.8822 277.4830 0004558  28.0516 332.0715 15.35077722  3232
KUIPER-00177            
1 67766U 26030C   26056.58429977  .00023455  00000+0  66938-3 0  9996
2 67766  51.8830 277.4371 0000679  68.6817 291.4242 15.35921331  3233
