CCSDS_OMM_VERS = 2.0
CREATION_DATE  = 
ORIGINATOR     = 

OBJECT_NAME    = 2026-027B
OBJECT_ID      = 2026-027B
CENTER_NAME    = EARTH
REF_FRAME      = TEME
TIME_SYSTEM    = UTC
MEAN_ELEMENT_THEORY = SGP/SGP4

EPOCH          = 2026-02-25T13:41:05.208288
MEAN_MOTION    = 15.17540483
ECCENTRICITY   = .0009598
INCLINATION    = 97.4876
RA_OF_ASC_NODE = 185.7156
ARG_OF_PERICENTER = 241.2288
MEAN_ANOMALY   = 118.7982

EPHEMERIS_TYPE = 0
CLASSIFICATION_TYPE = U
NORAD_CAT_ID   = 67747
ELEMENT_SET_NO = 999
REV_AT_EPOCH   = 202
BSTAR          = .42477738E-3
MEAN_MOTION_DOT = .8469E-4
MEAN_MOTION_DDOT = 0

CCSDS_OMM_VERS = 2.0
CREATION_DATE  = 
ORIGINATOR     = 

OBJECT_NAME    = 2026-027C
OBJECT_ID      = 2026-027C
CENTER_NAME    = EARTH
REF_FRAME      = TEME
TIME_SYSTEM    = UTC
MEAN_ELEMENT_THEORY = SGP/SGP4

EPOCH          = 2026-02-25T13:39:34.447680
MEAN_MOTION    = 15.17625840
ECCENTRICITY   = .00099473
INCLINATION    = 97.4888
RA_OF_ASC_NODE = 185.7193
ARG_OF_PERICENTER = 244.1727
MEAN_ANOMALY   = 115.8481

EPHEMERIS_TYPE = 0
CLASSIFICATION_TYPE = U
NORAD_CAT_ID   = 67748
ELEMENT_SET_NO = 999
REV_AT_EPOCH   = 202
BSTAR          = .30629152E-3
MEAN_MOTION_DOT = .6101E-4
MEAN_MOTION_DDOT = 0

CCSDS_OMM_VERS = 2.0
CREATION_DATE  = 
ORIGINATOR     = 

OBJECT_NAME    = 2026-027D
OBJECT_ID      = 2026-027D
CENTER_NAME    = EARTH
REF_FRAME      = TEME
TIME_SYSTEM    = UTC
MEAN_ELEMENT_THEORY = SGP/SGP4

EPOCH          = 2026-02-25T15:12:15.859296
MEAN_MOTION    = 15.17858743
ECCENTRICITY   = .00097473
INCLINATION    = 97.4883
RA_OF_ASC_NODE = 185.7857
ARG_OF_PERICENTER = 248.7837
MEAN_ANOMALY   = 111.2356

EPHEMERIS_TYPE = 0
CLASSIFICATION_TYPE = U
NORAD_CAT_ID   = 67749
ELEMENT_SET_NO = 999
REV_AT_EPOCH   = 198
BSTAR          = .49170564E-3
MEAN_MOTION_DOT = .9907E-4
MEAN_MOTION_DDOT = 0

CCSDS_OMM_VERS = 2.0
CREATION_DATE  = 
ORIGINATOR     = 

OBJECT_NAME    = 2026-027E
OBJECT_ID      = 2026-027E
CENTER_NAME    = EARTH
REF_FRAME      = TEME
TIME_SYSTEM    = UTC
MEAN_ELEMENT_THEORY = SGP/SGP4

EPOCH          = 2026-02-25T13:37:16.000320
MEAN_MOTION    = 15.17845625
ECCENTRICITY   = .00088899
INCLINATION    = 97.4894
RA_OF_ASC_NODE = 185.7226
ARG_OF_PERICENTER = 250.3273
MEAN_ANOMALY   = 109.7001

EPHEMERIS_TYPE = 0
CLASSIFICATION_TYPE = U
NORAD_CAT_ID   = 67750
ELEMENT_SET_NO = 999
REV_AT_EPOCH   = 202
BSTAR          = .42418758E-3
MEAN_MOTION_DOT = .853E-4
MEAN_MOTION_DDOT = 0

CCSDS_OMM_VERS = 2.0
CREATION_DATE  = 
ORIGINATOR     = 

OBJECT_NAME    = 2026-027F
OBJECT_ID      = 2026-027F
CENTER_NAME    = EARTH
REF_FRAME      = TEME
TIME_SYSTEM    = UTC
MEAN_ELEMENT_THEORY = SGP/SGP4

EPOCH          = 2026-02-25T15:10:57.306144
MEAN_MOTION    = 15.18021632
ECCENTRICITY   = .00100886
INCLINATION    = 97.4893
RA_OF_ASC_NODE = 185.7893
ARG_OF_PERICENTER = 249.8889
MEAN_ANOMALY   = 110.1260

EPHEMERIS_TYPE = 0
CLASSIFICATION_TYPE = U
NORAD_CAT_ID   = 67751
ELEMENT_SET_NO = 999
REV_AT_EPOCH   = 203
BSTAR          = .67947882E-3
MEAN_MOTION_DOT = .13788E-3
MEAN_MOTION_DDOT = 0

CCSDS_OMM_VERS = 2.0
CREATION_DATE  = 
ORIGINATOR     = 

OBJECT_NAME    = 2026-027G
OBJECT_ID      = 2026-027G
CENTER_NAME    = EARTH
REF_FRAME      = TEME
TIME_SYSTEM    = UTC
MEAN_ELEMENT_THEORY = SGP/SGP4

EPOCH          = 2026-02-25T15:11:05.319744
MEAN_MOTION    = 15.17941927
ECCENTRICITY   = .00092232
INCLINATION    = 97.4888
RA_OF_ASC_NODE = 185.7877
ARG_OF_PERICENTER = 252.4534
MEAN_ANOMALY   = 107.5692

EPHEMERIS_TYPE = 0
CLASSIFICATION_TYPE = U
NORAD_CAT_ID   = 67752
ELEMENT_SET_NO = 999
REV_AT_EPOCH   = 203
BSTAR          = .4476175E-3
MEAN_MOTION_DOT = .9032E-4
MEAN_MOTION_DDOT = 0

CCSDS_OMM_VERS = 2.0
CREATION_DATE  = 
ORIGINATOR     = 

OBJECT_NAME    = 2026-027H
OBJECT_ID      = 2026-027H
CENTER_NAME    = EARTH
REF_FRAME      = TEME
TIME_SYSTEM    = UTC
MEAN_ELEMENT_THEORY = SGP/SGP4

EPOCH          = 2026-02-25T14:09:31.592736
MEAN_MOTION    = 15.65089406
ECCENTRICITY   = .0248817
INCLINATION    = 97.5123
RA_OF_ASC_NODE = 186.7051
ARG_OF_PERICENTER = 289.7090
MEAN_ANOMALY   = 67.7483

EPHEMERIS_TYPE = 0
CLASSIFICATION_TYPE = U
NORAD_CAT_ID   = 67753
ELEMENT_SET_NO = 999
REV_AT_EPOCH   = 208
BSTAR          = .59009799E-3
MEAN_MOTION_DOT = .344011E-2
MEAN_MOTION_DDOT = .236162E-5

CCSDS_OMM_VERS = 2.0
CREATION_DATE  = 
ORIGINATOR     = 

OBJECT_NAME    = 2026-027J
OBJECT_ID      = 2026-027J
CENTER_NAME    = EARTH
REF_FRAME      = TEME
TIME_SYSTEM    = UTC
MEAN_ELEMENT_THEORY = SGP/SGP4

EPOCH          = 2026-02-25T14:31:59.478528
MEAN_MOTION    = 15.77256314
ECCENTRICITY   = .02070943
INCLINATION    = 97.5081
RA_OF_ASC_NODE = 186.8366
ARG_OF_PERICENTER = 288.4308
MEAN_ANOMALY   = 69.4544

EPHEMERIS_TYPE = 0
CLASSIFICATION_TYPE = U
NORAD_CAT_ID   = 67754
ELEMENT_SET_NO = 999
REV_AT_EPOCH   = 203
BSTAR          = .12139142E-2
MEAN_MOTION_DOT = .924705E-2
MEAN_MOTION_DDOT = .2412104E-5

CCSDS_OMM_VERS = 2.0
CREATION_DATE  = 
ORIGINATOR     = 

OBJECT_NAME    = 2026-028A
OBJECT_ID      = 2026-028A
CENTER_NAME    = EARTH
REF_FRAME      = TEME
TIME_SYSTEM    = UTC
MEAN_ELEMENT_THEORY = SGP/SGP4

EPOCH          = 2026-02-25T06:56:03.035328
MEAN_MOTION    = 0.99526192
ECCENTRICITY   = .00420297
INCLINATION    = 0.4997
RA_OF_ASC_NODE = 288.8926
ARG_OF_PERICENTER = 229.9232
MEAN_ANOMALY   = 201.3318

EPHEMERIS_TYPE = 0
CLASSIFICATION_TYPE = U
NORAD_CAT_ID   = 67756
ELEMENT_SET_NO = 999
REV_AT_EPOCH   = 13
BSTAR          = 0
MEAN_MOTION_DOT = -.171E-5
MEAN_MOTION_DDOT = 0

CCSDS_OMM_VERS = 2.0
CREATION_DATE  = 
ORIGINATOR     = 

OBJECT_NAME    = KUIPER-00159
OBJECT_ID      = 2026-030A
CENTER_NAME    = EARTH
REF_FRAME      = TEME
TIME_SYSTEM    = UTC
MEAN_ELEMENT_THEORY = SGP/SGP4

EPOCH          = 2026-02-25T14:11:31.159968
MEAN_MOTION    = 15.35151074
ECCENTRICITY   = .00043037
INCLINATION    = 51.8856
RA_OF_ASC_NODE = 277.4834
ARG_OF_PERICENTER = 19.9292
MEAN_ANOMALY   = 340.1861

EPHEMERIS_TYPE = 0
CLASSIFICATION_TYPE = U
NORAD_CAT_ID   = 67764
ELEMENT_SET_NO = 999
REV_AT_EPOCH   = 323
BSTAR          = .73223748E-3
MEAN_MOTION_DOT = .25071E-3
MEAN_MOTION_DDOT = 0

CCSDS_OMM_VERS = 2.0
CREATION_DATE  = 
ORIGINATOR     = 

OBJECT_NAME    = KUIPER-00160
OBJECT_ID      = 2026-030B
CENTER_NAME    = EARTH
REF_FRAME      = TEME
TIME_SYSTEM    = UTC
MEAN_ELEMENT_THEORY = SGP/SGP4

EPOCH          = 2026-02-25T14:12:30.329280
MEAN_MOTION    = 15.35077722
ECCENTRICITY   = .00045586
INCLINATION    = 51.8822
RA_OF_ASC_NODE = 277.4830
ARG_OF_PERICENTER = 28.0516
MEAN_ANOMALY   = 332.0715

EPHEMERIS_TYPE = 0
CLASSIFICATION_TYPE = U
NORAD_CAT_ID   = 67765
ELEMENT_SET_NO = 999
REV_AT_EPOCH   = 323
BSTAR          = .64038828E-3
MEAN_MOTION_DOT = .21818E-3
MEAN_MOTION_DDOT = 0

CCSDS_OMM_VERS = 2.0
CREATION_DATE  = 
ORIGINATOR     = 

OBJECT_NAME    = KUIPER-00177
OBJECT_ID      = 2026-030C
CENTER_NAME    = EARTH
REF_FRAME      = TEME
TIME_SYSTEM    = UTC
MEAN_ELEMENT_THEORY = SGP/SGP4

EPOCH          = 2026-02-25T14:01:23.500128
MEAN_MOTION    = 15.35921331
ECCENTRICITY   = .00006791
INCLINATION    = 51.8830
RA_OF_ASC_NODE = 277.4371
ARG_OF_PERICENTER = 68.6817
MEAN_ANOMALY   = 291.4242

EPHEMERIS_TYPE = 0
CLASSIFICATION_TYPE = U
NORAD_CAT_ID   = 67766
ELEMENT_SET_NO = 999
REV_AT_EPOCH   = 323
BSTAR          = .66937709E-3
MEAN_MOTION_DOT = .23455E-3
MEAN_MOTION_DDOT = 0

